UOSAT 2 (UO-11)         
1 14781U 84021B   17345.69558052  .00000107  00000-0  19440-4 0  9996
2 14781  97.6751  24.6460 0008049 347.9131  12.1889 14.82964015816654
